[{"OBJECT_NAME":"TEVEL2-5","OBJECT_ID":"2025-052E","EPOCH":"2026-03-09T23:11:54.246048","MEAN_MOTION":15.30817434,"ECCENTRICITY":0.00047002,"INCLINATION":97.4013,"RA_OF_ASC_NODE":325.3677,"ARG_OF_PERICENTER":95.3936,"MEAN_ANOMALY":264.7842,"EPHEMERIS_TYPE":0,"CLASSIFICATION_TYPE":"U","NORAD_CAT_ID":63214,"ELEMENT_SET_NO":999,"REV_AT_EPOCH":5491,"BSTAR":0.00071764727,"MEAN_MOTION_DOT":0.00021339,"MEAN_MOTION_DDOT":0},{"OBJECT_NAME":"STARLINK-36493","OBJECT_ID":"2026-008M","EPOCH":"2026-03-09T10:13:50.995488","MEAN_MOTION":15.27594532,"ECCENTRICITY":0.00022072,"INCLINATION":43.0004,"RA_OF_ASC_NODE":206.5646,"ARG_OF_PERICENTER":280.1015,"MEAN_ANOMALY":79.9588,"EPHEMERIS_TYPE":0,"CLASSIFICATION_TYPE":"U","NORAD_CAT_ID":67456,"ELEMENT_SET_NO":999,"REV_AT_EPOCH":953,"BSTAR":0.0012998221,"MEAN_MOTION_DOT":0.00035696,"MEAN_MOTION_DDOT":0}]
